H1 CPF  1  DGF 2022 10 29 10  8021 larets     NONE      
H2   304206 5557    27944 2022 10 29 00 00 00 2022 11 05 00 00 00    30 1 1  0 0 0
H5  0.0650
H9
10 0 59884  28800.000000  0        890896.622      -5857322.386      -3859355.733
10 0 59884  28830.000000  0        857574.146      -5981786.170      -3671656.486
10 0 59884  28860.000000  0        822855.071      -6100063.156      -3480223.689
10 0 59884  28890.000000  0        786801.675      -6212027.149      -3285251.526
10 0 59884  28920.000000  0        749478.129      -6317558.586      -3086937.840
10 0 59884  28950.000000  0        710950.410      -6416544.664      -2885483.936
10 0 59884  28980.000000  0        671286.199      -6508879.481      -2681094.375
10 0 59884  29010.000000  0        630554.788      -6594464.146      -2473976.770
10 0 59884  29040.000000  0        588826.977      -6673206.903      -2264341.568
10 0 59884  29070.000000  0        546174.971      -6745023.228      -2052401.840
10 0 59884  29100.000000  0        502672.272      -6809835.932      -1838373.062
10 0 59884  29130.000000  0        458393.580      -6867575.247      -1622472.888
10 0 59884  29160.000000  0        413414.675      -6918178.908      -1404920.935
10 0 59884  29190.000000  0        367812.315      -6961592.225      -1185938.551
10 0 59884  29220.000000  0        321664.121      -6997768.146       -965748.588
10 0 59884  29250.000000  0        275048.464      -7026667.316       -744575.171
10 0 59884  29280.000000  0        228044.352      -7048258.118       -522643.469
10 0 59884  29310.000000  0        180731.317      -7062516.717       -300179.461
10 0 59884  29340.000000  0        133189.295      -7069427.082        -77409.701
10 0 59884  29370.000000  0         85498.514      -7068981.014        145438.915
10 0 59884  29400.000000  0         37739.379      -7061178.157        368139.383
10 0 59884  29430.000000  0        -10007.650      -7046025.998        590464.834
10 0 59884  29460.000000  0        -57662.170      -7023539.863        812188.761
10 0 59884  29490.000000  0       -105143.953      -6993742.902       1033085.264
10 0 59884  29520.000000  0       -152373.065      -6956666.064       1252929.280
10 0 59884  29550.000000  0       -199269.978      -6912348.066       1471496.820
10 0 59884  29580.000000  0       -245755.690      -6860835.345       1688565.203
10 0 59884  29610.000000  0       -291751.835      -6802182.012       1903913.286
10 0 59884  29640.000000  0       -337180.801      -6736449.786       2117321.697
10 0 59884  29670.000000  0       -381965.837      -6663707.932       2328573.060
10 0 59884  29700.000000  0       -426031.171      -6584033.178       2537452.224
10 0 59884  29730.000000  0       -469302.113      -6497509.627       2743746.489
10 0 59884  29760.000000  0       -511705.167      -6404228.657       2947245.820
10 0 59884  29790.000000  0       -553168.132      -6304288.816       3147743.062
10 0 59884  29820.000000  0       -593620.210      -6197795.711       3345034.150
10 0 59884  29850.000000  0       -632992.106      -6084861.896       3538918.310
10 0 59884  29880.000000  0       -671216.131      -5965606.747       3729198.269
10 0 59884  29910.000000  0       -708226.299      -5840156.330       3915680.458
10 0 59884  29940.000000  0       -743958.428      -5708643.259       4098175.204
10 0 59884  29970.000000  0       -778350.224      -5571206.551       4276496.928
10 0 59884  30000.000000  0       -811341.381      -5427991.468       4450464.326
10 0 59884  30030.000000  0       -842873.660      -5279149.357       4619900.551
10 0 59884  30060.000000  0       -872890.976      -5124837.489       4784633.391
10 0 59884  30090.000000  0       -901339.476      -4965218.884       4944495.443
10 0 59884  30120.000000  0       -928167.625      -4800462.136       5099324.275
10 0 59884  30150.000000  0       -953326.273      -4630741.231       5248962.598
10 0 59884  30180.000000  0       -976768.733      -4456235.352       5393258.417
10 0 59884  30210.000000  0       -998450.847      -4277128.686       5532065.186
10 0 59884  30240.000000  0      -1018331.054      -4093610.224       5665241.949
10 0 59884  30270.000000  0      -1036370.448      -3905873.549       5792653.483
10 0 59884  30300.000000  0      -1052532.838      -3714116.633       5914170.423
10 0 59884  30330.000000  0      -1066784.801      -3518541.620       6029669.386
10 0 59884  30360.000000  0      -1079095.733      -3319354.611       6139033.096
10 0 59884  30390.000000  0      -1089437.891      -3116765.445       6242150.488
10 0 59884  30420.000000  0      -1097786.440      -2910987.476       6338916.814
10 0 59884  30450.000000  0      -1104119.490      -2702237.354       6429233.752
10 0 59884  30480.000000  0      -1108418.133      -2490734.792       6513009.490
10 0 59884  30510.000000  0      -1110666.470      -2276702.342       6590158.827
10 0 59884  30540.000000  0      -1110851.644      -2060365.155       6660603.253
10 0 59884  30570.000000  0      -1108963.858      -1841950.751       6724271.024
10 0 59884  30600.000000  0      -1104996.403      -1621688.771       6781097.236
10 0 59884  30630.000000  0      -1098945.664      -1399810.743       6831023.888
10 0 59884  30660.000000  0      -1090811.143      -1176549.838       6873999.936
10 0 59884  30690.000000  0      -1080595.460       -952140.620       6909981.346
10 0 59884  30720.000000  0      -1068304.360       -726818.810       6938931.133
10 0 59884  30750.000000  0      -1053946.712       -500821.035       6960819.400
10 0 59884  30780.000000  0      -1037534.503       -274384.585       6975623.367
10 0 59884  30810.000000  0      -1019082.829        -47747.169       6983327.402
10 0 59884  30840.000000  0       -998609.885        178853.342       6983923.034
10 0 59884  30870.000000  0       -976136.942        405179.154       6977408.967
10 0 59884  30900.000000  0       -951688.331        630992.808       6963791.079
10 0 59884  30930.000000  0       -925291.414        856057.418       6943082.424
10 0 59884  30960.000000  0       -896976.555       1080136.926       6915303.219
10 0 59884  30990.000000  0       -866777.086       1302996.340       6880480.830
10 0 59884  31020.000000  0       -834729.272       1524401.990       6838649.749
10 0 59884  31050.000000  0       -800872.267       1744121.763       6789851.566
10 0 59884  31080.000000  0       -765248.070       1961925.354       6734134.928
10 0 59884  31110.000000  0       -727901.475       2177584.506       6671555.497
10 0 59884  31140.000000  0       -688880.017       2390873.243       6602175.905
10 0 59884  31170.000000  0       -648233.918       2601568.112       6526065.692
10 0 59884  31200.000000  0       -606016.024       2809448.423       6443301.251
10 0 59884  31230.000000  0       -562281.744       3014296.479       6353965.755
10 0 59884  31260.000000  0       -517088.980       3215897.810       6258149.079
10 0 59884  31290.000000  0       -470498.057       3414041.403       6155947.712
10 0 59884  31320.000000  0       -422571.648       3608519.923       6047464.673
10 0 59884  31350.000000  0       -373374.693       3799129.935       5932809.411
10 0 59884  31380.000000  0       -322974.322       3985672.123       5812097.704
10 0 59884  31410.000000  0       -271439.763       4167951.501       5685451.547
10 0 59884  31440.000000  0       -218842.262       4345777.627       5552999.041
10 0 59884  31470.000000  0       -165254.985       4518964.810       5414874.274
10 0 59884  31500.000000  0       -110752.925       4687332.314       5271217.189
10 0 59884  31530.000000  0        -55412.806       4850704.561       5122173.446
10 0 59884  31560.000000  0           687.018       5008911.324       4967894.283
10 0 59884  31590.000000  0         57466.671       5161787.911       4808536.354
10 0 59884  31620.000000  0        114844.854       5309175.346       4644261.575
10 0 59884  31650.000000  0        172738.959       5450920.532       4475236.961
10 0 59884  31680.000000  0        231065.168       5586876.418       4301634.466
10 0 59884  31710.000000  0        289738.576       5716902.154       4123630.815
10 0 59884  31740.000000  0        348673.297       5840863.258       3941407.341
10 0 59884  31770.000000  0        407782.580       5958631.769       3755149.813
10 0 59884  31800.000000  0        466978.932       6070086.411       3565048.238
10 0 59884  31830.000000  0        526174.234       6175112.731       3371296.672
10 0 59884  31860.000000  0        585279.871       6273603.244       3174093.000
10 0 59884  31890.000000  0        644206.857       6365457.540       2973638.723
10 0 59884  31920.000000  0        702865.962       6450582.384       2770138.737
10 0 59884  31950.000000  0        761167.824       6528891.805       2563801.137
10 0 59884  31980.000000  0        819023.079       6600307.202       2354837.008
10 0 59884  32010.000000  0        876342.485       6664757.439       2143460.204
10 0 59884  32040.000000  0        933037.049       6722178.927       1929887.115
10 0 59884  32070.000000  0        989018.155       6772515.691       1714336.439
10 0 59884  32100.000000  0       1044197.688       6815719.426       1497028.947
10 0 59884  32130.000000  0       1098488.164       6851749.546       1278187.254
10 0 59884  32160.000000  0       1151802.849       6880573.230       1058035.585
10 0 59884  32190.000000  0       1204055.891       6902165.452        836799.536
10 0 59884  32220.000000  0       1255162.439       6916509.009        614705.838
10 0 59884  32250.000000  0       1305038.771       6923594.538        391982.110
10 0 59884  32280.000000  0       1353602.412       6923420.514        168856.617
10 0 59884  32310.000000  0       1400772.255       6915993.249        -54441.972
10 0 59884  32340.000000  0       1446468.676       6901326.874       -277684.823
10 0 59884  32370.000000  0       1490613.654       6879443.324       -500643.183
99
